{"fetched_at":"2026-07-07T18:29:06.539Z","source":"https://celestrak.org/NORAD/elements/gp.php?GROUP=oneweb&FORMAT=JSON","constellation":"oneweb","records":[{"OBJECT_NAME":"ONEWEB-0558","OBJECT_ID":"2023-043P","EPOCH":"2026-07-06T16:06:12.625344","CLASSIFICATION_TYPE":"U","MEAN_MOTION":13.21825639,"ECCENTRICITY":0.0002404,"INCLINATION":87.9239,"RA_OF_ASC_NODE":240.1014,"ARG_OF_PERICENTER":100.036,"MEAN_ANOMALY":260.1045,"EPHEMERIS_TYPE":0,"NORAD_CAT_ID":56059,"ELEMENT_SET_NO":999,"REV_AT_EPOCH":16081,"BSTAR":-0.00021025,"MEAN_MOTION_DOT":-7.4e-7,"MEAN_MOTION_DDOT":0},{"OBJECT_NAME":"ONEWEB-0559","OBJECT_ID":"2023-043Q","EPOCH":"2026-07-07T02:43:15.428064","CLASSIFICATION_TYPE":"U","MEAN_MOTION":13.21825019,"ECCENTRICITY":0.0002173,"INCLINATION":87.9242,"RA_OF_ASC_NODE":240.0089,"ARG_OF_PERICENTER":102.9406,"MEAN_ANOMALY":257.197,"EPHEMERIS_TYPE":0,"NORAD_CAT_ID":56060,"ELEMENT_SET_NO":999,"REV_AT_EPOCH":16088,"BSTAR":-0.00048661,"MEAN_MOTION_DOT":-0.00000188,"MEAN_MOTION_DDOT":0},{"OBJECT_NAME":"ONEWEB-0566","OBJECT_ID":"2023-043R","EPOCH":"2026-07-07T02:33:34.133184","CLASSIFICATION_TYPE":"U","MEAN_MOTION":13.21824893,"ECCENTRICITY":0.0002207,"INCLINATION":87.9241,"RA_OF_ASC_NODE":240.0081,"ARG_OF_PERICENTER":105.6019,"MEAN_ANOMALY":254.5359,"EPHEMERIS_TYPE":0,"NORAD_CAT_ID":56061,"ELEMENT_SET_NO":999,"REV_AT_EPOCH":16086,"BSTAR":-0.00051432,"MEAN_MOTION_DOT":-0.00000199,"MEAN_MOTION_DDOT":0},{"OBJECT_NAME":"ONEWEB-0568","OBJECT_ID":"2023-043S","EPOCH":"2026-07-07T01:46:45.941376","CLASSIFICATION_TYPE":"U","MEAN_MOTION":13.16595085,"ECCENTRICITY":0.0002225,"INCLINATION":87.9079,"RA_OF_ASC_NODE":224.8212,"ARG_OF_PERICENTER":88.2423,"MEAN_ANOMALY":271.8962,"EPHEMERIS_TYPE":0,"NORAD_CAT_ID":56062,"ELEMENT_SET_NO":999,"REV_AT_EPOCH":16159,"BSTAR":0.000043564,"MEAN_MOTION_DOT":3e-7,"MEAN_MOTION_DDOT":0},{"OBJECT_NAME":"ONEWEB-0574","OBJECT_ID":"2023-043T","EPOCH":"2026-07-07T02:23:54.923136","CLASSIFICATION_TYPE":"U","MEAN_MOTION":13.21825521,"ECCENTRICITY":0.0001945,"INCLINATION":87.9245,"RA_OF_ASC_NODE":240.014,"ARG_OF_PERICENTER":92.919,"MEAN_ANOMALY":267.2167,"EPHEMERIS_TYPE":0,"NORAD_CAT_ID":56063,"ELEMENT_SET_NO":999,"REV_AT_EPOCH":16090,"BSTAR":0.00015556,"MEAN_MOTION_DOT":7.7e-7,"MEAN_MOTION_DDOT":0},{"OBJECT_NAME":"ONEWEB-0575","OBJECT_ID":"2023-043U","EPOCH":"2026-07-07T01:37:38.144640","CLASSIFICATION_TYPE":"U","MEAN_MOTION":13.16594606,"ECCENTRICITY":0.0001886,"INCLINATION":87.908,"RA_OF_ASC_NODE":224.8188,"ARG_OF_PERICENTER":82.9865,"MEAN_ANOMALY":277.1481,"EPHEMERIS_TYPE":0,"NORAD_CAT_ID":56064,"ELEMENT_SET_NO":999,"REV_AT_EPOCH":16158,"BSTAR":0.000030606,"MEAN_MOTION_DOT":2.5e-7,"MEAN_MOTION_DDOT":0},{"OBJECT_NAME":"ONEWEB-0576","OBJECT_ID":"2023-043V","EPOCH":"2026-07-06T14:13:39.254016","CLASSIFICATION_TYPE":"U","MEAN_MOTION":13.16595083,"ECCENTRICITY":0.0001979,"INCLINATION":87.9083,"RA_OF_ASC_NODE":224.9217,"ARG_OF_PERICENTER":88.8369,"MEAN_ANOMALY":271.2989,"EPHEMERIS_TYPE":0,"NORAD_CAT_ID":56065,"ELEMENT_SET_NO":999,"REV_AT_EPOCH":16151,"BSTAR":-0.00016685,"MEAN_MOTION_DOT":-5.1e-7,"MEAN_MOTION_DDOT":0},{"OBJECT_NAME":"ONEWEB-0577","OBJECT_ID":"2023-043W","EPOCH":"2026-07-06T14:22:47.269344","CLASSIFICATION_TYPE":"U","MEAN_MOTION":13.16595336,"ECCENTRICITY":0.0001569,"INCLINATION":87.9082,"RA_OF_ASC_NODE":224.9179,"ARG_OF_PERICENTER":75.3658,"MEAN_ANOMALY":284.7646,"EPHEMERIS_TYPE":0,"NORAD_CAT_ID":56066,"ELEMENT_SET_NO":999,"REV_AT_EPOCH":16154,"BSTAR":-0.000075667,"MEAN_MOTION_DOT":-1.6e-7,"MEAN_MOTION_DDOT":0},{"OBJECT_NAME":"ONEWEB-0578","OBJECT_ID":"2023-043X","EPOCH":"2026-07-07T02:04:32.284128","CLASSIFICATION_TYPE":"U","MEAN_MOTION":13.21826034,"ECCENTRICITY":0.0002243,"INCLINATION":87.9244,"RA_OF_ASC_NODE":240.0132,"ARG_OF_PERICENTER":89.255,"MEAN_ANOMALY":270.8841,"EPHEMERIS_TYPE":0,"NORAD_CAT_ID":56067,"ELEMENT_SET_NO":999,"REV_AT_EPOCH":16086,"BSTAR":0.0002228,"MEAN_MOTION_DOT":0.00000105,"MEAN_MOTION_DDOT":0},{"OBJECT_NAME":"ONEWEB-0579","OBJECT_ID":"2023-043Y","EPOCH":"2026-07-07T01:52:24.174048","CLASSIFICATION_TYPE":"U","MEAN_MOTION":13.21827671,"ECCENTRICITY":0.0001987,"INCLINATION":87.9247,"RA_OF_ASC_NODE":240.0125,"ARG_OF_PERICENTER":104.2466,"MEAN_ANOMALY":255.8888,"EPHEMERIS_TYPE":0,"NORAD_CAT_ID":56068,"ELEMENT_SET_NO":999,"REV_AT_EPOCH":16087,"BSTAR":0.000031361,"MEAN_MOTION_DOT":2.6e-7,"MEAN_MOTION_DDOT":0},{"OBJECT_NAME":"ONEWEB-0581","OBJECT_ID":"2023-043Z","EPOCH":"2026-07-06T14:31:54.158016","CLASSIFICATION_TYPE":"U","MEAN_MOTION":13.16594788,"ECCENTRICITY":0.0001622,"INCLINATION":87.9077,"RA_OF_ASC_NODE":224.9278,"ARG_OF_PERICENTER":83.8387,"MEAN_ANOMALY":276.2928,"EPHEMERIS_TYPE":0,"NORAD_CAT_ID":56069,"ELEMENT_SET_NO":999,"REV_AT_EPOCH":16151,"BSTAR":-0.00013498,"MEAN_MOTION_DOT":-3.9e-7,"MEAN_MOTION_DDOT":0},{"OBJECT_NAME":"ONEWEB-0609","OBJECT_ID":"2023-043AA","EPOCH":"2026-07-07T11:43:42.030624","CLASSIFICATION_TYPE":"U","MEAN_MOTION":13.15547311,"ECCENTRICITY":0.0002141,"INCLINATION":87.899,"RA_OF_ASC_NODE":255.1666,"ARG_OF_PERICENTER":97.934,"MEAN_ANOMALY":262.2033,"EPHEMERIS_TYPE":0,"NORAD_CAT_ID":56070,"ELEMENT_SET_NO":999,"REV_AT_EPOCH":15910,"BSTAR":0.00035976,"MEAN_MOTION_DOT":0.00000148,"MEAN_MOTION_DDOT":0},{"OBJECT_NAME":"ONEWEB-0613","OBJECT_ID":"2023-043AB","EPOCH":"2026-07-06T17:25:03.661248","CLASSIFICATION_TYPE":"U","MEAN_MOTION":13.15547535,"ECCENTRICITY":0.0002106,"INCLINATION":87.8991,"RA_OF_ASC_NODE":255.331,"ARG_OF_PERICENTER":106.1193,"MEAN_ANOMALY":254.0169,"EPHEMERIS_TYPE":0,"NORAD_CAT_ID":56071,"ELEMENT_SET_NO":999,"REV_AT_EPOCH":15900,"BSTAR":0.00020461,"MEAN_MOTION_DOT":9e-7,"MEAN_MOTION_DDOT":0},{"OBJECT_NAME":"ONEWEB-0630","OBJECT_ID":"2023-043AC","EPOCH":"2026-07-07T04:15:21.420000","CLASSIFICATION_TYPE":"U","MEAN_MOTION":13.15549585,"ECCENTRICITY":0.0002082,"INCLINATION":87.8996,"RA_OF_ASC_NODE":255.2138,"ARG_OF_PERICENTER":105.5451,"MEAN_ANOMALY":254.5909,"EPHEMERIS_TYPE":0,"NORAD_CAT_ID":56072,"ELEMENT_SET_NO":999,"REV_AT_EPOCH":15905,"BSTAR":0.00042991,"MEAN_MOTION_DOT":0.00000175,"MEAN_MOTION_DDOT":0},{"OBJECT_NAME":"ONEWEB-0632","OBJECT_ID":"2023-043AD","EPOCH":"2026-07-06T17:11:22.722144","CLASSIFICATION_TYPE":"U","MEAN_MOTION":13.15548032,"ECCENTRICITY":0.0001877,"INCLINATION":87.8991,"RA_OF_ASC_NODE":255.3229,"ARG_OF_PERICENTER":96.8812,"MEAN_ANOMALY":263.2532,"EPHEMERIS_TYPE":0,"NORAD_CAT_ID":56073,"ELEMENT_SET_NO":999,"REV_AT_EPOCH":15899,"BSTAR":0.00028681,"MEAN_MOTION_DOT":0.00000121,"MEAN_MOTION_DDOT":0},{"OBJECT_NAME":"ONEWEB-0633","OBJECT_ID":"2023-043AE","EPOCH":"2026-07-07T03:59:23.404704","CLASSIFICATION_TYPE":"U","MEAN_MOTION":13.15547828,"ECCENTRICITY":0.0002287,"INCLINATION":87.8996,"RA_OF_ASC_NODE":255.2105,"ARG_OF_PERICENTER":107.6993,"MEAN_ANOMALY":252.4387,"EPHEMERIS_TYPE":0,"NORAD_CAT_ID":56074,"ELEMENT_SET_NO":999,"REV_AT_EPOCH":15903,"BSTAR":0.000031798,"MEAN_MOTION_DOT":2.5e-7,"MEAN_MOTION_DDOT":0}]}
